CCSDS_OMM_VERS = 2.0
CREATION_DATE  = 
ORIGINATOR     = 

OBJECT_NAME    = SL-4 R/B
OBJECT_ID      = 2014-021B
CENTER_NAME    = EARTH
REF_FRAME      = TEME
TIME_SYSTEM    = UTC
MEAN_ELEMENT_THEORY = SGP/SGP4

EPOCH          = 2026-02-04T15:12:19.901952
MEAN_MOTION    = 15.38128383
ECCENTRICITY   = .009907
INCLINATION    = 51.6066
RA_OF_ASC_NODE = 138.4045
ARG_OF_PERICENTER = 342.5093
MEAN_ANOMALY   = 17.2487

EPHEMERIS_TYPE = 0
CLASSIFICATION_TYPE = U
NORAD_CAT_ID   = 39679
ELEMENT_SET_NO = 999
REV_AT_EPOCH   = 65118
BSTAR          = .31138E-3
MEAN_MOTION_DOT = .13631E-3
MEAN_MOTION_DDOT = 0

CCSDS_OMM_VERS = 2.0
CREATION_DATE  = 
ORIGINATOR     = 

OBJECT_NAME    = ALOS-2
OBJECT_ID      = 2014-029A
CENTER_NAME    = EARTH
REF_FRAME      = TEME
TIME_SYSTEM    = UTC
MEAN_ELEMENT_THEORY = SGP/SGP4

EPOCH          = 2026-02-04T20:23:01.540032
MEAN_MOTION    = 14.79481095
ECCENTRICITY   = .0001493
INCLINATION    = 97.9223
RA_OF_ASC_NODE = 134.9190
ARG_OF_PERICENTER = 95.2971
MEAN_ANOMALY   = 264.8411

EPHEMERIS_TYPE = 0
CLASSIFICATION_TYPE = U
NORAD_CAT_ID   = 39766
ELEMENT_SET_NO = 999
REV_AT_EPOCH   = 63201
BSTAR          = .13726E-3
MEAN_MOTION_DOT = .974E-5
MEAN_MOTION_DDOT = 0

CCSDS_OMM_VERS = 2.0
CREATION_DATE  = 
ORIGINATOR     = 

OBJECT_NAME    = YAOGAN-29
OBJECT_ID      = 2015-069A
CENTER_NAME    = EARTH
REF_FRAME      = TEME
TIME_SYSTEM    = UTC
MEAN_ELEMENT_THEORY = SGP/SGP4

EPOCH          = 2026-02-04T20:49:24.116736
MEAN_MOTION    = 14.82954735
ECCENTRICITY   = .0002885
INCLINATION    = 98.0173
RA_OF_ASC_NODE = 64.2039
ARG_OF_PERICENTER = 90.8370
MEAN_ANOMALY   = 269.3174

EPHEMERIS_TYPE = 0
CLASSIFICATION_TYPE = U
NORAD_CAT_ID   = 41038
ELEMENT_SET_NO = 999
REV_AT_EPOCH   = 55101
BSTAR          = -.77789E-5
MEAN_MOTION_DOT = -.117E-5
MEAN_MOTION_DDOT = 0

CCSDS_OMM_VERS = 2.0
CREATION_DATE  = 
ORIGINATOR     = 

OBJECT_NAME    = ASTRO-H (HITOMI)
OBJECT_ID      = 2016-012A
CENTER_NAME    = EARTH
REF_FRAME      = TEME
TIME_SYSTEM    = UTC
MEAN_ELEMENT_THEORY = SGP/SGP4

EPOCH          = 2026-02-04T18:40:51.612960
MEAN_MOTION    = 15.09759678
ECCENTRICITY   = .0009889
INCLINATION    = 30.9979
RA_OF_ASC_NODE = 208.8923
ARG_OF_PERICENTER = 1.6922
MEAN_ANOMALY   = 358.3749

EPHEMERIS_TYPE = 0
CLASSIFICATION_TYPE = U
NORAD_CAT_ID   = 41337
ELEMENT_SET_NO = 999
REV_AT_EPOCH   = 54725
BSTAR          = .24434E-3
MEAN_MOTION_DOT = .414E-4
MEAN_MOTION_DDOT = 0

CCSDS_OMM_VERS = 2.0
CREATION_DATE  = 
ORIGINATOR     = 

OBJECT_NAME    = HXMT (HUIYAN)
OBJECT_ID      = 2017-034A
CENTER_NAME    = EARTH
REF_FRAME      = TEME
TIME_SYSTEM    = UTC
MEAN_ELEMENT_THEORY = SGP/SGP4

EPOCH          = 2026-02-04T20:40:28.580160
MEAN_MOTION    = 15.17021730
ECCENTRICITY   = .0031303
INCLINATION    = 43.0130
RA_OF_ASC_NODE = 199.1223
ARG_OF_PERICENTER = 24.7496
MEAN_ANOMALY   = 335.4846

EPHEMERIS_TYPE = 0
CLASSIFICATION_TYPE = U
NORAD_CAT_ID   = 42758
ELEMENT_SET_NO = 999
REV_AT_EPOCH   = 47755
BSTAR          = .36944E-3
MEAN_MOTION_DOT = .7295E-4
MEAN_MOTION_DDOT = 0

CCSDS_OMM_VERS = 2.0
CREATION_DATE  = 
ORIGINATOR     = 

OBJECT_NAME    = CZ-2C R/B
OBJECT_ID      = 2018-054D
CENTER_NAME    = EARTH
REF_FRAME      = TEME
TIME_SYSTEM    = UTC
MEAN_ELEMENT_THEORY = SGP/SGP4

EPOCH          = 2026-02-04T10:34:46.848864
MEAN_MOTION    = 15.93270476
ECCENTRICITY   = .0013498
INCLINATION    = 35.1296
RA_OF_ASC_NODE = 172.5170
ARG_OF_PERICENTER = 340.0546
MEAN_ANOMALY   = 19.9664

EPHEMERIS_TYPE = 0
CLASSIFICATION_TYPE = U
NORAD_CAT_ID   = 43521
ELEMENT_SET_NO = 999
REV_AT_EPOCH   = 42356
BSTAR          = .76887E-3
MEAN_MOTION_DOT = .287748E-2
MEAN_MOTION_DDOT = .32E-4

CCSDS_OMM_VERS = 2.0
CREATION_DATE  = 
ORIGINATOR     = 

OBJECT_NAME    = SAOCOM 1A
OBJECT_ID      = 2018-076A
CENTER_NAME    = EARTH
REF_FRAME      = TEME
TIME_SYSTEM    = UTC
MEAN_ELEMENT_THEORY = SGP/SGP4

EPOCH          = 2026-02-04T19:34:04.535328
MEAN_MOTION    = 14.82155138
ECCENTRICITY   = .0001424
INCLINATION    = 97.8860
RA_OF_ASC_NODE = 224.4545
ARG_OF_PERICENTER = 86.4914
MEAN_ANOMALY   = 273.6461

EPHEMERIS_TYPE = 0
CLASSIFICATION_TYPE = U
NORAD_CAT_ID   = 43641
ELEMENT_SET_NO = 999
REV_AT_EPOCH   = 39649
BSTAR          = .17381E-3
MEAN_MOTION_DOT = .1332E-4
MEAN_MOTION_DDOT = 0

CCSDS_OMM_VERS = 2.0
CREATION_DATE  = 
ORIGINATOR     = 

OBJECT_NAME    = H-2A R/B
OBJECT_ID      = 2018-084L
CENTER_NAME    = EARTH
REF_FRAME      = TEME
TIME_SYSTEM    = UTC
MEAN_ELEMENT_THEORY = SGP/SGP4

EPOCH          = 2026-02-04T14:35:34.816704
MEAN_MOTION    = 15.39870441
ECCENTRICITY   = .0026262
INCLINATION    = 98.8754
RA_OF_ASC_NODE = 245.9623
ARG_OF_PERICENTER = 136.6942
MEAN_ANOMALY   = 223.6369

EPHEMERIS_TYPE = 0
CLASSIFICATION_TYPE = U
NORAD_CAT_ID   = 43682
ELEMENT_SET_NO = 999
REV_AT_EPOCH   = 40068
BSTAR          = .56014E-3
MEAN_MOTION_DOT = .22452E-3
MEAN_MOTION_DDOT = 0

CCSDS_OMM_VERS = 2.0
CREATION_DATE  = 
ORIGINATOR     = 

OBJECT_NAME    = SAOCOM 1B
OBJECT_ID      = 2020-059A
CENTER_NAME    = EARTH
REF_FRAME      = TEME
TIME_SYSTEM    = UTC
MEAN_ELEMENT_THEORY = SGP/SGP4

EPOCH          = 2026-02-04T20:19:05.021760
MEAN_MOTION    = 14.82159172
ECCENTRICITY   = .0001333
INCLINATION    = 97.8857
RA_OF_ASC_NODE = 223.5838
ARG_OF_PERICENTER = 82.5448
MEAN_ANOMALY   = 277.5917

EPHEMERIS_TYPE = 0
CLASSIFICATION_TYPE = U
NORAD_CAT_ID   = 46265
ELEMENT_SET_NO = 999
REV_AT_EPOCH   = 29388
BSTAR          = .62583E-4
MEAN_MOTION_DOT = .446E-5
MEAN_MOTION_DDOT = 0

CCSDS_OMM_VERS = 2.0
CREATION_DATE  = 
ORIGINATOR     = 

OBJECT_NAME    = CSS (TIANHE)
OBJECT_ID      = 2021-035A
CENTER_NAME    = EARTH
REF_FRAME      = TEME
TIME_SYSTEM    = UTC
MEAN_ELEMENT_THEORY = SGP/SGP4

EPOCH          = 2026-02-04T11:42:31.874688
MEAN_MOTION    = 15.59177353
ECCENTRICITY   = .0005892
INCLINATION    = 41.4675
RA_OF_ASC_NODE = 49.9559
ARG_OF_PERICENTER = 357.7325
MEAN_ANOMALY   = 2.3485

EPHEMERIS_TYPE = 0
CLASSIFICATION_TYPE = U
NORAD_CAT_ID   = 48274
ELEMENT_SET_NO = 999
REV_AT_EPOCH   = 27242
BSTAR          = .20945E-3
MEAN_MOTION_DOT = .16594E-3
MEAN_MOTION_DDOT = 0

CCSDS_OMM_VERS = 2.0
CREATION_DATE  = 
ORIGINATOR     = 

OBJECT_NAME    = COSMOS 2550
OBJECT_ID      = 2021-056A
CENTER_NAME    = EARTH
REF_FRAME      = TEME
TIME_SYSTEM    = UTC
MEAN_ELEMENT_THEORY = SGP/SGP4

EPOCH          = 2026-02-04T18:47:42.242784
MEAN_MOTION    = 15.33832445
ECCENTRICITY   = .0008347
INCLINATION    = 67.1452
RA_OF_ASC_NODE = 140.4683
ARG_OF_PERICENTER = 270.4001
MEAN_ANOMALY   = 89.6196

EPHEMERIS_TYPE = 0
CLASSIFICATION_TYPE = U
NORAD_CAT_ID   = 48865
ELEMENT_SET_NO = 999
REV_AT_EPOCH   = 25841
BSTAR          = .24575E-3
MEAN_MOTION_DOT = .7902E-4
MEAN_MOTION_DDOT = 0

CCSDS_OMM_VERS = 2.0
CREATION_DATE  = 
ORIGINATOR     = 

OBJECT_NAME    = CZ-2C R/B
OBJECT_ID      = 2022-058K
CENTER_NAME    = EARTH
REF_FRAME      = TEME
TIME_SYSTEM    = UTC
MEAN_ELEMENT_THEORY = SGP/SGP4

EPOCH          = 2026-02-04T13:39:32.248800
MEAN_MOTION    = 15.51895625
ECCENTRICITY   = .004239
INCLINATION    = 50.1894
RA_OF_ASC_NODE = 128.3576
ARG_OF_PERICENTER = 60.3489
MEAN_ANOMALY   = 300.1692

EPHEMERIS_TYPE = 0
CLASSIFICATION_TYPE = U
NORAD_CAT_ID   = 52794
ELEMENT_SET_NO = 999
REV_AT_EPOCH   = 20498
BSTAR          = .51409E-3
MEAN_MOTION_DOT = .32282E-3
MEAN_MOTION_DDOT = 0

