SL-4 R/B                
1 39679U 14021B   26035.63356368  .00013631  00000+0  31138-3 0  9990
2 39679  51.6066 138.4045 0099070 342.5093  17.2487 15.38128383651188
ALOS-2                  
1 39766U 14029A   26035.84932338  .00000974  00000+0  13726-3 0  9994
2 39766  97.9223 134.9190 0001493  95.2971 264.8411 14.79481095632018
YAOGAN-29               
1 41038U 15069A   26035.86764024 -.00000117  00000+0 -77789-5 0  9993
2 41038  98.0173  64.2039 0002885  90.8370 269.3174 14.82954735551012
ASTRO-H (HITOMI)        
1 41337U 16012A   26035.77837515  .00004140  00000+0  24434-3 0  9995
2 41337  30.9979 208.8923 0009889   1.6922 358.3749 15.09759678547252
HXMT (HUIYAN)           
1 42758U 17034A   26035.86144190  .00007295  00000+0  36944-3 0  9991
2 42758  43.0130 199.1223 0031303  24.7496 335.4846 15.17021730477556
CZ-2C R/B               
1 43521U 18054D   26035.44082001  .00287748  32000-4  76887-3 0  9992
2 43521  35.1296 172.5170 0013498 340.0546  19.9664 15.93270476423562
SAOCOM 1A               
1 43641U 18076A   26035.81533027  .00001332  00000+0  17381-3 0  9996
2 43641  97.8860 224.4545 0001424  86.4914 273.6461 14.82155138396495
H-2A R/B                
1 43682U 18084L   26035.60804186  .00022452  00000+0  56014-3 0  9996
2 43682  98.8754 245.9623 0026262 136.6942 223.6369 15.39870441400687
SAOCOM 1B               
1 46265U 20059A   26035.84658590  .00000446  00000+0  62583-4 0  9991
2 46265  97.8857 223.5838 0001333  82.5448 277.5917 14.82159172293889
CSS (TIANHE)            
1 48274U 21035A   26035.48786892  .00016594  00000+0  20945-3 0  9991
2 48274  41.4675  49.9559 0005892 357.7325   2.3485 15.59177353272426
COSMOS 2550             
1 48865U 21056A   26035.78312781  .00007902  00000+0  24575-3 0  9991
2 48865  67.1452 140.4683 0008347 270.4001  89.6196 15.33832445258417
CZ-2C R/B               
1 52794U 22058K   26035.56912325  .00032282  00000+0  51409-3 0  9991
2 52794  50.1894 128.3576 0042390  60.3489 300.1692 15.51895625204987
